[
{"address_line": "6101 AVALON", "city": "CA", "state": "USA", "zip_code": "90003-1632"},
{"address_line": "8319 S  BROADWAY", "city": "CA", "state": "USA", "zip_code": "90003-2846"},
{"address_line": "7619 1/2 S  MAIN", "city": "CA", "state": "USA", "zip_code": "90003-2547"},
{"address_line": "6801 CONVERSE", "city": "CA", "state": "USA", "zip_code": "90001-2025"},
{"address_line": "1411 E  61ST", "city": "CA", "state": "USA", "zip_code": "90001-1255"},
{"address_line": "10210 S  FIGUEROA", "city": "CA", "state": "USA", "zip_code": "90003-4460"},
{"address_line": "800 E  82ND", "city": "CA", "state": "USA", "zip_code": "90001-3224"},
{"address_line": "7200 WADSWORTH", "city": "CA", "state": "USA", "zip_code": "90001-2342"},
{"address_line": "7001 S SAN PEDRO", "city": "CA", "state": "USA", "zip_code": "90003-2213"},
{"address_line": "10221 COMPTON", "city": "CA", "state": "USA", "zip_code": "90002-2805"},
{"address_line": "200 W  91ST", "city": "CA", "state": "USA", "zip_code": "90003-4024"},
{"address_line": "800 E CENTURY", "city": "CA", "state": "USA", "zip_code": "90002-2726"},
{"address_line": "400 E 61ST", "city": "CA", "state": "USA", "zip_code": "90003-1621"},
{"address_line": "400 W SLAUSON", "city": "CA", "state": "USA", "zip_code": "90003-1040"},
{"address_line": "244 E  61ST", "city": "CA", "state": "USA", "zip_code": "90003-1256"},
{"address_line": "201 W  FLORENCE", "city": "CA", "state": "USA", "zip_code": "90003-1806"},
{"address_line": "1300 E  61ST", "city": "CA", "state": "USA", "zip_code": "90001-1219"},
{"address_line": "6107 AVALON", "city": "CA", "state": "USA", "zip_code": "90003-1648"},
{"address_line": "10500 S BROADWAY", "city": "CA", "state": "USA", "zip_code": "90003-4670"},
{"address_line": "650 N MADISON", "city": "CA", "state": "USA", "zip_code": "90004-2297"},
{"address_line": "616 E  89TH", "city": "CA", "state": "USA", "zip_code": "90002-1600"},
{"address_line": "500 N WESTMORELAND", "city": "CA", "state": "USA", "zip_code": "90004-2211"},
{"address_line": "407 N  WILTON", "city": "CA", "state": "USA", "zip_code": "90004-1650"},
{"address_line": "1308 E  67TH", "city": "CA", "state": "USA", "zip_code": "90001-1959"},
{"address_line": "628 N  HARVARD", "city": "CA", "state": "USA", "zip_code": "90004-1933"},
{"address_line": "6350 AVALON", "city": "CA", "state": "USA", "zip_code": "90003-1641"},
{"address_line": "7200 AVALON", "city": "CA", "state": "USA", "zip_code": "90003-2228"},
{"address_line": "1140 E  58TH", "city": "CA", "state": "USA", "zip_code": "90001-1106"},
{"address_line": "1551 PO BOX", "city": "CA", "state": "USA", "zip_code": "90001-0551"},
{"address_line": "301 N JUNE", "city": "CA", "state": "USA", "zip_code": "90004-1041"},
{"address_line": "1801 RANDOLPH", "city": "CA", "state": "USA", "zip_code": "90001-1435"},
{"address_line": "1200 E 103RD", "city": "CA", "state": "USA", "zip_code": "90002-3301"},
{"address_line": "1950 FIRESTONE", "city": "CA", "state": "USA", "zip_code": "90001-4154"},
{"address_line": "100 E  97TH", "city": "CA", "state": "USA", "zip_code": "90003-4202"},
{"address_line": "709 E  79TH", "city": "CA", "state": "USA", "zip_code": "90001-3258"},
{"address_line": "1500 E  102ND", "city": "CA", "state": "USA", "zip_code": "90002-3338"},
{"address_line": "7701 S BROADWAY", "city": "CA", "state": "USA", "zip_code": "90003-2433"},
{"address_line": "9101 S  ALAMEDA", "city": "CA", "state": "USA", "zip_code": "90002-1845"},
{"address_line": "8300 MAIE", "city": "CA", "state": "USA", "zip_code": "90001-3929"},
{"address_line": "10501 ANZAC", "city": "CA", "state": "USA", "zip_code": "90002-3730"},
{"address_line": "7717 S  MAIN", "city": "CA", "state": "USA", "zip_code": "90003-2445"},
{"address_line": "8760 S  MAIN", "city": "CA", "state": "USA", "zip_code": "90003-3468"},
{"address_line": "640 N  KINGSLEY", "city": "CA", "state": "USA", "zip_code": "90004-1925"},
{"address_line": "1527 E  84TH", "city": "CA", "state": "USA", "zip_code": "90001-3953"},
{"address_line": "1739 E 69TH", "city": "CA", "state": "USA", "zip_code": "90001-2010"},
{"address_line": "501 N  ROSSMORE", "city": "CA", "state": "USA", "zip_code": "90004-2432"},
{"address_line": "100 E  91ST", "city": "CA", "state": "USA", "zip_code": "90003-3711"},
{"address_line": "636 N WINDSOR", "city": "CA", "state": "USA", "zip_code": "90004-1415"},
{"address_line": "5701 CLINTON", "city": "CA", "state": "USA", "zip_code": "90004-1233"},
{"address_line": "8315 S CENTRAL", "city": "CA", "state": "USA", "zip_code": "90001-3754"},
{"address_line": "8800 GRAHAM", "city": "CA", "state": "USA", "zip_code": "90002-1433"},
{"address_line": "7901 STANFORD", "city": "CA", "state": "USA", "zip_code": "90001-3233"},
{"address_line": "9301 PACE", "city": "CA", "state": "USA", "zip_code": "90002-2112"},
{"address_line": "6200 S  CENTRAL", "city": "CA", "state": "USA", "zip_code": "90001-1636"},
{"address_line": "9901 GRAPE", "city": "CA", "state": "USA", "zip_code": "90002-3112"},
{"address_line": "5924 1/2 S OLIVE", "city": "CA", "state": "USA", "zip_code": "90003-1129"},
{"address_line": "506 N  NORMANDIE", "city": "CA", "state": "USA", "zip_code": "90004-2044"},
{"address_line": "3750 MIDDLEBURY", "city": "CA", "state": "USA", "zip_code": "90004-2338"},
{"address_line": "8400 ZAMORA", "city": "CA", "state": "USA", "zip_code": "90001-3829"},
{"address_line": "1200 E  FLORENCE", "city": "CA", "state": "USA", "zip_code": "90001-2433"},
{"address_line": "6701 S ALAMEDA", "city": "CA", "state": "USA", "zip_code": "90001-2123"},
{"address_line": "1401 E 83RD", "city": "CA", "state": "USA", "zip_code": "90001-3821"},
{"address_line": "10131 BEACH", "city": "CA", "state": "USA", "zip_code": "90002-2914"},
{"address_line": "455 N  WILTON", "city": "CA", "state": "USA", "zip_code": "90004-1651"},
{"address_line": "10125 BEACH", "city": "CA", "state": "USA", "zip_code": "90002-2974"},
{"address_line": "8401 MCKINLEY", "city": "CA", "state": "USA", "zip_code": "90001-3636"},
{"address_line": "9518 AVALON", "city": "CA", "state": "USA", "zip_code": "90003-4345"},
{"address_line": "1101 E  60TH", "city": "CA", "state": "USA", "zip_code": "90001-1117"},
{"address_line": "7201 AVALON", "city": "CA", "state": "USA", "zip_code": "90003-2227"},
{"address_line": "100 W  91ST", "city": "CA", "state": "USA", "zip_code": "90003-4022"},
{"address_line": "1747 E 103RD", "city": "CA", "state": "USA", "zip_code": "90002-3917"},
{"address_line": "400 W 68TH", "city": "CA", "state": "USA", "zip_code": "90003-1702"},
{"address_line": "645 E  COLDEN", "city": "CA", "state": "USA", "zip_code": "90002-1931"},
{"address_line": "1221 PO BOX", "city": "CA", "state": "USA", "zip_code": "90001-0221"},
{"address_line": "9208 S SAN PEDRO", "city": "CA", "state": "USA", "zip_code": "90003-3865"},
{"address_line": "9401 KALMIA", "city": "CA", "state": "USA", "zip_code": "90002-2641"},
{"address_line": "519 N NORMANDIE", "city": "CA", "state": "USA", "zip_code": "90004-2009"},
{"address_line": "4150 CLINTON", "city": "CA", "state": "USA", "zip_code": "90004-2135"},
{"address_line": "10601 S SAN PEDRO", "city": "CA", "state": "USA", "zip_code": "90003-4933"},
{"address_line": "514 N  NORMANDIE", "city": "CA", "state": "USA", "zip_code": "90004-2046"},
{"address_line": "401 W 90TH", "city": "CA", "state": "USA", "zip_code": "90003-3221"},
{"address_line": "10206 S BROADWAY", "city": "CA", "state": "USA", "zip_code": "90003-4559"},
{"address_line": "800 E 103RD", "city": "CA", "state": "USA", "zip_code": "90002-3244"},
{"address_line": "1501 E 82ND", "city": "CA", "state": "USA", "zip_code": "90001-3817"},
{"address_line": "1650 E  82ND", "city": "CA", "state": "USA", "zip_code": "90001-3955"},
{"address_line": "401 N  ROSSMORE", "city": "CA", "state": "USA", "zip_code": "90004-2405"},
{"address_line": "8519 S  MAIN", "city": "CA", "state": "USA", "zip_code": "90003-2941"},
{"address_line": "600 N  WESTERN", "city": "CA", "state": "USA", "zip_code": "90004-1717"},
{"address_line": "7801 MAIE", "city": "CA", "state": "USA", "zip_code": "90001-2642"},
{"address_line": "1134 1/2 E  CENTURY", "city": "CA", "state": "USA", "zip_code": "90002-3342"},
{"address_line": "9330 SUCCESS", "city": "CA", "state": "USA", "zip_code": "90002-2240"},
{"address_line": "356 1/2 E 97TH", "city": "CA", "state": "USA", "zip_code": "90003-4349"},
{"address_line": "856 E MANCHESTER", "city": "CA", "state": "USA", "zip_code": "90001-3663"},
{"address_line": "8001 S MAIN", "city": "CA", "state": "USA", "zip_code": "90003-2407"},
{"address_line": "9300 BAIRD", "city": "CA", "state": "USA", "zip_code": "90002-2107"},
{"address_line": "9901 STANFORD", "city": "CA", "state": "USA", "zip_code": "90002-2740"},
{"address_line": "2001 FIRESTONE", "city": "CA", "state": "USA", "zip_code": "90001-4127"},
{"address_line": "8511 S  MAIN", "city": "CA", "state": "USA", "zip_code": "90003-2922"},
{"address_line": "1801 E  81ST", "city": "CA", "state": "USA", "zip_code": "90001-3420"},
{"address_line": "6821 S  BROADWAY", "city": "CA", "state": "USA", "zip_code": "90003-1857"},
{"address_line": "155 E 87TH", "city": "CA", "state": "USA", "zip_code": "90003-3438"},
{"address_line": "7501 MCKINLEY", "city": "CA", "state": "USA", "zip_code": "90001-2331"},
{"address_line": "855 E 83RD", "city": "CA", "state": "USA", "zip_code": "90001-3648"},
{"address_line": "1801 E  88TH", "city": "CA", "state": "USA", "zip_code": "90002-1453"},
{"address_line": "500 N VERMONT", "city": "CA", "state": "USA", "zip_code": "90004-2115"},
{"address_line": "9001 STANFORD", "city": "CA", "state": "USA", "zip_code": "90002-1647"},
{"address_line": "8500 S SAN PEDRO", "city": "CA", "state": "USA", "zip_code": "90003-3014"},
{"address_line": "5037 ROSEWOOD", "city": "CA", "state": "USA", "zip_code": "90004-1784"},
{"address_line": "632 1/2 N  PLYMOUTH", "city": "CA", "state": "USA", "zip_code": "90004-1453"},
{"address_line": "1301 E  91ST", "city": "CA", "state": "USA", "zip_code": "90002-1735"},
{"address_line": "2051 E  76TH", "city": "CA", "state": "USA", "zip_code": "90001-2762"},
{"address_line": "1201 E 80TH", "city": "CA", "state": "USA", "zip_code": "90001-3303"},
{"address_line": "7800 S  FIGUEROA", "city": "CA", "state": "USA", "zip_code": "90003-2780"},
{"address_line": "6201 AVALON", "city": "CA", "state": "USA", "zip_code": "90003-1634"},
{"address_line": "641 N  PLYMOUTH", "city": "CA", "state": "USA", "zip_code": "90004-1443"},
{"address_line": "401 E  64TH", "city": "CA", "state": "USA", "zip_code": "90003-1603"},
{"address_line": "10140 BEACH", "city": "CA", "state": "USA", "zip_code": "90002-2947"},
{"address_line": "432 N  VIRGIL", "city": "CA", "state": "USA", "zip_code": "90004-2368"},
{"address_line": "627 N  ALEXANDRIA", "city": "CA", "state": "USA", "zip_code": "90004-2125"},
{"address_line": "301 N VAN NESS", "city": "CA", "state": "USA", "zip_code": "90004-1523"},
{"address_line": "525 N ARDMORE", "city": "CA", "state": "USA", "zip_code": "90004-2025"},
{"address_line": "7614 S MAIN", "city": "CA", "state": "USA", "zip_code": "90003-2500"},
{"address_line": "817 E GAGE", "city": "CA", "state": "USA", "zip_code": "90001-1587"},
{"address_line": "1508 E  62ND", "city": "CA", "state": "USA", "zip_code": "90001-1300"},
{"address_line": "8400 LOU DILLON", "city": "CA", "state": "USA", "zip_code": "90001-4142"},
{"address_line": "9526 S CENTRAL", "city": "CA", "state": "USA", "zip_code": "90002-2057"},
{"address_line": "601 N  SERRANO", "city": "CA", "state": "USA", "zip_code": "90004-1792"},
{"address_line": "9301 FIRTH", "city": "CA", "state": "USA", "zip_code": "90002-2224"},
{"address_line": "9719 CLOVIS", "city": "CA", "state": "USA", "zip_code": "90002-2039"},
{"address_line": "540 N  ROSSMORE", "city": "CA", "state": "USA", "zip_code": "90004-2482"},
{"address_line": "162 W  61ST", "city": "CA", "state": "USA", "zip_code": "90003-1402"},
{"address_line": "400 W  63RD", "city": "CA", "state": "USA", "zip_code": "90003-1007"},
{"address_line": "10415 S BROADWAY", "city": "CA", "state": "USA", "zip_code": "90003-4666"},
{"address_line": "4619 ROSEWOOD", "city": "CA", "state": "USA", "zip_code": "90004-1890"},
{"address_line": "1930 NADEAU", "city": "CA", "state": "USA", "zip_code": "90001-3500"},
{"address_line": "10146 BEACH", "city": "CA", "state": "USA", "zip_code": "90002-2949"},
{"address_line": "743013 PO BOX", "city": "CA", "state": "USA", "zip_code": "90004-0890"},
{"address_line": "901 E  73RD", "city": "CA", "state": "USA", "zip_code": "90001-2440"},
{"address_line": "8753 S  CENTRAL", "city": "CA", "state": "USA", "zip_code": "90002-1162"},
{"address_line": "304 N  ROSSMORE", "city": "CA", "state": "USA", "zip_code": "90004-2462"},
{"address_line": "551 N KINGSLEY", "city": "CA", "state": "USA", "zip_code": "90004-1910"},
{"address_line": "9001 S FIGUEROA", "city": "CA", "state": "USA", "zip_code": "90003-3229"},
{"address_line": "241 W 88TH", "city": "CA", "state": "USA", "zip_code": "90003-3603"},
{"address_line": "427 E 84TH", "city": "CA", "state": "USA", "zip_code": "90003-3137"},
{"address_line": "1326 E  68TH", "city": "CA", "state": "USA", "zip_code": "90001-1958"},
{"address_line": "9400 GRAPE", "city": "CA", "state": "USA", "zip_code": "90002-2531"},
{"address_line": "900 E  93RD", "city": "CA", "state": "USA", "zip_code": "90002-1903"},
{"address_line": "5881 MIRAMONTE", "city": "CA", "state": "USA", "zip_code": "90001-1333"},
{"address_line": "1133 E 60TH", "city": "CA", "state": "USA", "zip_code": "90001-1117"},
{"address_line": "654 N NORMANDIE", "city": "CA", "state": "USA", "zip_code": "90004-2037"},
{"address_line": "10500 WILMINGTON", "city": "CA", "state": "USA", "zip_code": "90002-3704"},
{"address_line": "1309 E  76TH", "city": "CA", "state": "USA", "zip_code": "90001-3072"},
{"address_line": "7500 MIRAMONTE", "city": "CA", "state": "USA", "zip_code": "90001-2645"},
{"address_line": "6600 HOLMES", "city": "CA", "state": "USA", "zip_code": "90001-2130"},
{"address_line": "7751 COMPTON", "city": "CA", "state": "USA", "zip_code": "90001-2655"},
{"address_line": "106 E  71ST", "city": "CA", "state": "USA", "zip_code": "90003-2155"},
{"address_line": "10001 BEACH", "city": "CA", "state": "USA", "zip_code": "90002-2936"},
{"address_line": "254 W  78TH", "city": "CA", "state": "USA", "zip_code": "90003-2458"},
{"address_line": "10601 S  BROADWAY", "city": "CA", "state": "USA", "zip_code": "90003-4669"},
{"address_line": "641 N NORMANDIE", "city": "CA", "state": "USA", "zip_code": "90004-2088"},
{"address_line": "900 E  85TH", "city": "CA", "state": "USA", "zip_code": "90001-3726"},
{"address_line": "10401 STANFORD", "city": "CA", "state": "USA", "zip_code": "90002-3266"},
{"address_line": "9801 TOWNE", "city": "CA", "state": "USA", "zip_code": "90003-4330"},
{"address_line": "1650 E CENTURY", "city": "CA", "state": "USA", "zip_code": "90002-2932"},
{"address_line": "200 E 83RD", "city": "CA", "state": "USA", "zip_code": "90003-3024"},
{"address_line": "601 N KINGSLEY", "city": "CA", "state": "USA", "zip_code": "90004-1912"},
{"address_line": "607 1/2 N BRONSON", "city": "CA", "state": "USA", "zip_code": "90004-1460"},
{"address_line": "1566 E  92ND", "city": "CA", "state": "USA", "zip_code": "90002-2478"},
{"address_line": "600 N ARDEN", "city": "CA", "state": "USA", "zip_code": "90004-1202"},
{"address_line": "10106 S  MAIN", "city": "CA", "state": "USA", "zip_code": "90003-4645"},
{"address_line": "6324 S  BROADWAY", "city": "CA", "state": "USA", "zip_code": "90003-1462"},
{"address_line": "9250 MAIE", "city": "CA", "state": "USA", "zip_code": "90002-2382"},
{"address_line": "6801 MCKINLEY", "city": "CA", "state": "USA", "zip_code": "90001-1525"},
{"address_line": "1201 E  66TH", "city": "CA", "state": "USA", "zip_code": "90001-1622"},
{"address_line": "132 W  FLORENCE", "city": "CA", "state": "USA", "zip_code": "90003-1892"},
{"address_line": "9300 TOWNE", "city": "CA", "state": "USA", "zip_code": "90003-3800"},
{"address_line": "4151 CLINTON", "city": "CA", "state": "USA", "zip_code": "90004-2150"},
{"address_line": "9216 BELHAVEN", "city": "CA", "state": "USA", "zip_code": "90002-2008"},
{"address_line": "5100 MAPLEWOOD", "city": "CA", "state": "USA", "zip_code": "90004-1637"},
{"address_line": "628 1/2 N WINDSOR", "city": "CA", "state": "USA", "zip_code": "90004-1422"},
{"address_line": "1343 E  83RD", "city": "CA", "state": "USA", "zip_code": "90001-3845"},
{"address_line": "101 E  82ND", "city": "CA", "state": "USA", "zip_code": "90003-2521"},
{"address_line": "1300 E  CENTURY", "city": "CA", "state": "USA", "zip_code": "90002-2862"},
{"address_line": "400 E 67TH", "city": "CA", "state": "USA", "zip_code": "90003-1904"},
{"address_line": "519 N  ARDMORE", "city": "CA", "state": "USA", "zip_code": "90004-2030"},
{"address_line": "9504 KALMIA", "city": "CA", "state": "USA", "zip_code": "90002-2663"},
{"address_line": "8400 ZAMORA", "city": "CA", "state": "USA", "zip_code": "90001-3829"},
{"address_line": "8850 WALL", "city": "CA", "state": "USA", "zip_code": "90003-3446"},
{"address_line": "200 W  81ST", "city": "CA", "state": "USA", "zip_code": "90003-2430"},
{"address_line": "455 W 80TH", "city": "CA", "state": "USA", "zip_code": "90003-2782"},
{"address_line": "8000 S BROADWAY", "city": "CA", "state": "USA", "zip_code": "90003-2460"},
{"address_line": "7600 S FLOWER", "city": "CA", "state": "USA", "zip_code": "90003-1767"},
{"address_line": "1800 E  92ND", "city": "CA", "state": "USA", "zip_code": "90002-2474"},
{"address_line": "7700 HOOPER", "city": "CA", "state": "USA", "zip_code": "90001-3041"},
{"address_line": "7225 S SAN PEDRO", "city": "CA", "state": "USA", "zip_code": "90003-2247"},
{"address_line": "1237 E 61ST", "city": "CA", "state": "USA", "zip_code": "90001-1179"},
{"address_line": "1101 E FLORENCE", "city": "CA", "state": "USA", "zip_code": "90001-2430"},
{"address_line": "7800 CROCKETT", "city": "CA", "state": "USA", "zip_code": "90001-3121"},
{"address_line": "8414 S  FIGUEROA", "city": "CA", "state": "USA", "zip_code": "90003-2700"},
{"address_line": "7801 S  CENTRAL", "city": "CA", "state": "USA", "zip_code": "90001-2943"},
{"address_line": "6001 MIRAMONTE", "city": "CA", "state": "USA", "zip_code": "90001-1327"},
{"address_line": "743083 PO BOX", "city": "CA", "state": "USA", "zip_code": "90004-0923"},
{"address_line": "9100 S  CENTRAL", "city": "CA", "state": "USA", "zip_code": "90002-1743"},
{"address_line": "7800 S  FIGUEROA", "city": "CA", "state": "USA", "zip_code": "90003-2749"},
{"address_line": "73741 PO BOX", "city": "CA", "state": "USA", "zip_code": "90003-0741"},
{"address_line": "9601 S SAN PEDRO", "city": "CA", "state": "USA", "zip_code": "90003-4324"},
{"address_line": "344 W 79TH", "city": "CA", "state": "USA", "zip_code": "90003-2464"},
{"address_line": "200 W  78TH", "city": "CA", "state": "USA", "zip_code": "90003-2412"},
{"address_line": "9200 PACE", "city": "CA", "state": "USA", "zip_code": "90002-2109"},
{"address_line": "6001 HOOPER", "city": "CA", "state": "USA", "zip_code": "90001-1222"},
{"address_line": "2050 E 105TH", "city": "CA", "state": "USA", "zip_code": "90002-3715"},
{"address_line": "151 E  95TH", "city": "CA", "state": "USA", "zip_code": "90003-4245"},
{"address_line": "10305 GRANDEE", "city": "CA", "state": "USA", "zip_code": "90002-3652"},
{"address_line": "8200 S  BROADWAY", "city": "CA", "state": "USA", "zip_code": "90003-2828"},
{"address_line": "5950 S CENTRAL", "city": "CA", "state": "USA", "zip_code": "90001-1158"},
{"address_line": "1600 NADEAU", "city": "CA", "state": "USA", "zip_code": "90001-3441"},
{"address_line": "1700 E 92ND", "city": "CA", "state": "USA", "zip_code": "90002-2401"},
{"address_line": "8700 S  FIR", "city": "CA", "state": "USA", "zip_code": "90002-1514"},
{"address_line": "6519 MCKINLEY", "city": "CA", "state": "USA", "zip_code": "90001-1550"},
{"address_line": "509 1/2 N  NORMANDIE", "city": "CA", "state": "USA", "zip_code": "90004-2009"},
{"address_line": "8100 BELL", "city": "CA", "state": "USA", "zip_code": "90001-3433"},
{"address_line": "10501 PARMELEE", "city": "CA", "state": "USA", "zip_code": "90002-3550"},
{"address_line": "449 W 78TH", "city": "CA", "state": "USA", "zip_code": "90003-2778"},
{"address_line": "7514 S SAN PEDRO", "city": "CA", "state": "USA", "zip_code": "90003-2340"},
{"address_line": "7600 CROCKETT", "city": "CA", "state": "USA", "zip_code": "90001-3117"},
{"address_line": "7801 COMPTON", "city": "CA", "state": "USA", "zip_code": "90001-2613"},
{"address_line": "315 W  65TH", "city": "CA", "state": "USA", "zip_code": "90003-1452"},
{"address_line": "7800 S  FIGUEROA", "city": "CA", "state": "USA", "zip_code": "90003-2780"},
{"address_line": "7625 S CENTRAL", "city": "CA", "state": "USA", "zip_code": "90001-2999"},
{"address_line": "1601 E  69TH", "city": "CA", "state": "USA", "zip_code": "90001-2011"},
{"address_line": "101 W  70TH", "city": "CA", "state": "USA", "zip_code": "90003-1828"},
{"address_line": "9628 CROESUS", "city": "CA", "state": "USA", "zip_code": "90002-2660"},
{"address_line": "6400 CONVERSE", "city": "CA", "state": "USA", "zip_code": "90001-1720"},
{"address_line": "8500 HOOPER", "city": "CA", "state": "USA", "zip_code": "90001-3743"},
{"address_line": "6100 S  CENTRAL", "city": "CA", "state": "USA", "zip_code": "90001-1133"},
{"address_line": "8900 S CENTRAL", "city": "CA", "state": "USA", "zip_code": "90002-1738"},
{"address_line": "7901 BEACH", "city": "CA", "state": "USA", "zip_code": "90001-3422"},
{"address_line": "9900 ANZAC", "city": "CA", "state": "USA", "zip_code": "90002-3005"},
{"address_line": "7000 S  FIGUEROA", "city": "CA", "state": "USA", "zip_code": "90003-1718"},
{"address_line": "4425 MAPLEWOOD", "city": "CA", "state": "USA", "zip_code": "90004-2098"},
{"address_line": "10407 S BROADWAY", "city": "CA", "state": "USA", "zip_code": "90003-4664"},
{"address_line": "1650 E 66TH", "city": "CA", "state": "USA", "zip_code": "90001-2059"},
{"address_line": "1501 E CENTURY", "city": "CA", "state": "USA", "zip_code": "90002-2842"},
{"address_line": "8801 AVALON", "city": "CA", "state": "USA", "zip_code": "90003-3514"},
{"address_line": "6501 WILSON", "city": "CA", "state": "USA", "zip_code": "90001-2138"},
{"address_line": "1900 E 103RD", "city": "CA", "state": "USA", "zip_code": "90002-3122"},
{"address_line": "100 E  81ST", "city": "CA", "state": "USA", "zip_code": "90003-2545"},
{"address_line": "200 E  95TH", "city": "CA", "state": "USA", "zip_code": "90003-4235"},
{"address_line": "101 E  102ND", "city": "CA", "state": "USA", "zip_code": "90003-4705"},
{"address_line": "1747 E 103RD", "city": "CA", "state": "USA", "zip_code": "90002-3917"},
{"address_line": "1801 E FLORENCE", "city": "CA", "state": "USA", "zip_code": "90001-2220"},
{"address_line": "900 E  83RD", "city": "CA", "state": "USA", "zip_code": "90001-3766"},
{"address_line": "7511 S MAIN", "city": "CA", "state": "USA", "zip_code": "90003-2144"},
{"address_line": "510 N  HARVARD", "city": "CA", "state": "USA", "zip_code": "90004-1944"},
{"address_line": "640 N BEACHWOOD", "city": "CA", "state": "USA", "zip_code": "90004-1434"},
{"address_line": "1820 3/4 E CENTURY", "city": "CA", "state": "USA", "zip_code": "90002-3056"},
{"address_line": "122 E MANCHESTER", "city": "CA", "state": "USA", "zip_code": "90003-3400"},
{"address_line": "100 W 58TH", "city": "CA", "state": "USA", "zip_code": "90003-1102"},
{"address_line": "159 E MANCHESTER", "city": "CA", "state": "USA", "zip_code": "90003-3498"},
{"address_line": "100 W 70TH", "city": "CA", "state": "USA", "zip_code": "90003-1829"},
{"address_line": "8222 AVALON", "city": "CA", "state": "USA", "zip_code": "90003-3145"},
{"address_line": "649 N ARDMORE", "city": "CA", "state": "USA", "zip_code": "90004-2068"},
{"address_line": "1342 E  70TH", "city": "CA", "state": "USA", "zip_code": "90001-1970"},
{"address_line": "314 1/2 E 85TH", "city": "CA", "state": "USA", "zip_code": "90003-3055"},
{"address_line": "2000 E  76TH", "city": "CA", "state": "USA", "zip_code": "90001-3104"},
{"address_line": "101 S MCCADDEN", "city": "CA", "state": "USA", "zip_code": "90004-1051"},
{"address_line": "223 E 97TH", "city": "CA", "state": "USA", "zip_code": "90003-4242"},
{"address_line": "645 WILCOX", "city": "CA", "state": "USA", "zip_code": "90004-1120"},
{"address_line": "701 E 95TH", "city": "CA", "state": "USA", "zip_code": "90002-1916"},
{"address_line": "7650 PARMELEE", "city": "CA", "state": "USA", "zip_code": "90001-3063"},
{"address_line": "200 E FLORENCE", "city": "CA", "state": "USA", "zip_code": "90003-2120"},
{"address_line": "9400 CROESUS", "city": "CA", "state": "USA", "zip_code": "90002-2525"},
{"address_line": "5123 RALEIGH", "city": "CA", "state": "USA", "zip_code": "90004-1632"},
{"address_line": "1900 E  77TH", "city": "CA", "state": "USA", "zip_code": "90001-3106"},
{"address_line": "8401 S  OLIVE", "city": "CA", "state": "USA", "zip_code": "90003-2834"},
{"address_line": "6601 S GRAND", "city": "CA", "state": "USA", "zip_code": "90003-1882"},
{"address_line": "200 E  61ST", "city": "CA", "state": "USA", "zip_code": "90003-1232"},
{"address_line": "1601 E  91ST", "city": "CA", "state": "USA", "zip_code": "90002-1304"},
{"address_line": "2051 E  107TH", "city": "CA", "state": "USA", "zip_code": "90002-3724"},
{"address_line": "9500 MAIE", "city": "CA", "state": "USA", "zip_code": "90002-2349"},
{"address_line": "10500 COMPTON", "city": "CA", "state": "USA", "zip_code": "90002-3633"},
{"address_line": "427 E 82ND", "city": "CA", "state": "USA", "zip_code": "90003-3150"},
{"address_line": "645 N ARDMORE", "city": "CA", "state": "USA", "zip_code": "90004-2022"},
{"address_line": "1600 E  83RD", "city": "CA", "state": "USA", "zip_code": "90001-3908"},
{"address_line": "400 W  87TH", "city": "CA", "state": "USA", "zip_code": "90003-3202"},
{"address_line": "443 N HOOVER", "city": "CA", "state": "USA", "zip_code": "90004-2382"},
{"address_line": "401 E  CENTURY", "city": "CA", "state": "USA", "zip_code": "90003-4823"},
{"address_line": "6850 COMPTON", "city": "CA", "state": "USA", "zip_code": "90001-2052"},
{"address_line": "7900 WADSWORTH", "city": "CA", "state": "USA", "zip_code": "90001-3242"},
{"address_line": "9501 JUNIPER", "city": "CA", "state": "USA", "zip_code": "90002-2633"},
{"address_line": "8515 S  MAIN", "city": "CA", "state": "USA", "zip_code": "90003-2900"},
{"address_line": "10500 WADSWORTH", "city": "CA", "state": "USA", "zip_code": "90002-3459"},
{"address_line": "6517 1/2 AVALON", "city": "CA", "state": "USA", "zip_code": "90003-1943"},
{"address_line": "9526 FIRTH", "city": "CA", "state": "USA", "zip_code": "90002-2233"},
{"address_line": "9000 BANDERA", "city": "CA", "state": "USA", "zip_code": "90002-1415"},
{"address_line": "711 E 87TH", "city": "CA", "state": "USA", "zip_code": "90002-1007"},
{"address_line": "701 E  76TH", "city": "CA", "state": "USA", "zip_code": "90001-2803"},
{"address_line": "10200 S SPRING", "city": "CA", "state": "USA", "zip_code": "90003-4635"},
{"address_line": "410 N ROSSMORE", "city": "CA", "state": "USA", "zip_code": "90004-2423"},
{"address_line": "5158 1/2 CLINTON", "city": "CA", "state": "USA", "zip_code": "90004-1680"},
{"address_line": "8801 GRAHAM", "city": "CA", "state": "USA", "zip_code": "90002-1456"},
{"address_line": "152 1/2 E 82ND", "city": "CA", "state": "USA", "zip_code": "90003-2522"},
{"address_line": "522 N SERRANO", "city": "CA", "state": "USA", "zip_code": "90004-1782"},
{"address_line": "233 W CENTURY", "city": "CA", "state": "USA", "zip_code": "90003-4577"},
{"address_line": "10213 S  BROADWAY", "city": "CA", "state": "USA", "zip_code": "90003-4661"},
{"address_line": "1701 E 65TH", "city": "CA", "state": "USA", "zip_code": "90001-2107"},
{"address_line": "500 E MANCHESTER", "city": "CA", "state": "USA", "zip_code": "90003-3525"},
{"address_line": "5100 W 2ND", "city": "CA", "state": "USA", "zip_code": "90004-1059"},
{"address_line": "4933 1/2 MAPLEWOOD", "city": "CA", "state": "USA", "zip_code": "90004-2563"},
{"address_line": "601 E 88TH", "city": "CA", "state": "USA", "zip_code": "90002-1023"},
{"address_line": "552 N ARDMORE", "city": "CA", "state": "USA", "zip_code": "90004-2002"},
{"address_line": "246 E 87TH", "city": "CA", "state": "USA", "zip_code": "90003-3441"},
{"address_line": "1691 PO BOX", "city": "CA", "state": "USA", "zip_code": "90001-0691"},
{"address_line": "10003 GRAPE", "city": "CA", "state": "USA", "zip_code": "90002-3175"},
{"address_line": "4017 CLINTON", "city": "CA", "state": "USA", "zip_code": "90004-2189"},
{"address_line": "1400 E 69TH", "city": "CA", "state": "USA", "zip_code": "90001-1910"},
{"address_line": "701 E  COLDEN", "city": "CA", "state": "USA", "zip_code": "90002-1933"},
{"address_line": "537 N  OXFORD", "city": "CA", "state": "USA", "zip_code": "90004-2722"},
{"address_line": "9800 ZAMORA", "city": "CA", "state": "USA", "zip_code": "90002-2866"},
{"address_line": "801 E  COLDEN", "city": "CA", "state": "USA", "zip_code": "90002-1935"},
{"address_line": "642 E COLDEN", "city": "CA", "state": "USA", "zip_code": "90002-1930"},
{"address_line": "132 W FLORENCE", "city": "CA", "state": "USA", "zip_code": "90003-1892"},
{"address_line": "1400 E 78TH", "city": "CA", "state": "USA", "zip_code": "90001-3018"},
{"address_line": "10101 S  CENTRAL", "city": "CA", "state": "USA", "zip_code": "90002-3318"},
{"address_line": "8101 HOLMES", "city": "CA", "state": "USA", "zip_code": "90001-3438"},
{"address_line": "1300 E 104TH", "city": "CA", "state": "USA", "zip_code": "90002-3529"},
{"address_line": "532 N WESTMORELAND", "city": "CA", "state": "USA", "zip_code": "90004-2231"},
{"address_line": "1400 E  82ND", "city": "CA", "state": "USA", "zip_code": "90001-3806"},
{"address_line": "641 N  PLYMOUTH", "city": "CA", "state": "USA", "zip_code": "90004-1443"},
{"address_line": "8701 HOLMES", "city": "CA", "state": "USA", "zip_code": "90002-1440"},
{"address_line": "7019 1/2 HOLMES", "city": "CA", "state": "USA", "zip_code": "90001-2208"},
{"address_line": "260 E  93RD", "city": "CA", "state": "USA", "zip_code": "90003-3747"},
{"address_line": "2127 E  97TH", "city": "CA", "state": "USA", "zip_code": "90002-3145"},
{"address_line": "100 E 104TH", "city": "CA", "state": "USA", "zip_code": "90003-4722"},
{"address_line": "9250 MAIE", "city": "CA", "state": "USA", "zip_code": "90002-2378"},
{"address_line": "9201 S  CENTRAL", "city": "CA", "state": "USA", "zip_code": "90002-2014"},
{"address_line": "7618 AVALON", "city": "CA", "state": "USA", "zip_code": "90003-2342"},
{"address_line": "731 E  87TH", "city": "CA", "state": "USA", "zip_code": "90002-1009"},
{"address_line": "501 N SERRANO", "city": "CA", "state": "USA", "zip_code": "90004-2717"},
{"address_line": "7000 CONVERSE", "city": "CA", "state": "USA", "zip_code": "90001-2508"},
{"address_line": "4847 ROSEWOOD", "city": "CA", "state": "USA", "zip_code": "90004-2539"},
{"address_line": "900 E 105TH", "city": "CA", "state": "USA", "zip_code": "90002-3433"},
{"address_line": "10136 BEACH", "city": "CA", "state": "USA", "zip_code": "90002-3922"},
{"address_line": "901 E 102ND", "city": "CA", "state": "USA", "zip_code": "90002-3212"},
{"address_line": "5900 S  GRAND", "city": "CA", "state": "USA", "zip_code": "90003-1123"},
{"address_line": "5134 CLINTON", "city": "CA", "state": "USA", "zip_code": "90004-1600"},
{"address_line": "9501 S  CENTRAL", "city": "CA", "state": "USA", "zip_code": "90002-2050"},
{"address_line": "8800 WADSWORTH", "city": "CA", "state": "USA", "zip_code": "90002-1133"},
{"address_line": "9900 GRAPE", "city": "CA", "state": "USA", "zip_code": "90002-3111"},
{"address_line": "603 1/2 N  BRONSON", "city": "CA", "state": "USA", "zip_code": "90004-1403"},
{"address_line": "1833 E 62ND", "city": "CA", "state": "USA", "zip_code": "90001-1839"},
{"address_line": "501 E  87TH", "city": "CA", "state": "USA", "zip_code": "90003-3501"},
{"address_line": "233 W CENTURY", "city": "CA", "state": "USA", "zip_code": "90003-4577"},
{"address_line": "8301 S  MAIN", "city": "CA", "state": "USA", "zip_code": "90003-2917"},
{"address_line": "435 W 78TH", "city": "CA", "state": "USA", "zip_code": "90003-2770"},
{"address_line": "453 N OXFORD", "city": "CA", "state": "USA", "zip_code": "90004-2732"},
{"address_line": "6400 HOLMES", "city": "CA", "state": "USA", "zip_code": "90001-2148"},
{"address_line": "646 N  JUANITA", "city": "CA", "state": "USA", "zip_code": "90004-2292"},
{"address_line": "1600 E 66TH", "city": "CA", "state": "USA", "zip_code": "90001-2003"},
{"address_line": "7501 S  SAN PEDRO", "city": "CA", "state": "USA", "zip_code": "90003-2311"},
{"address_line": "701 E  85TH", "city": "CA", "state": "USA", "zip_code": "90001-3626"},
{"address_line": "636 N  ST ANDREWS", "city": "CA", "state": "USA", "zip_code": "90004-1778"},
{"address_line": "1650 E  60TH", "city": "CA", "state": "USA", "zip_code": "90001-1446"},
{"address_line": "8101 S MAIN", "city": "CA", "state": "USA", "zip_code": "90003-2515"},
{"address_line": "6101 S ALAMEDA", "city": "CA", "state": "USA", "zip_code": "90001-1810"},
{"address_line": "8300 MIRAMONTE", "city": "CA", "state": "USA", "zip_code": "90001-3939"},
{"address_line": "1400 E 68TH", "city": "CA", "state": "USA", "zip_code": "90001-1999"},
{"address_line": "10109 WILMINGTON", "city": "CA", "state": "USA", "zip_code": "90002-2900"},
{"address_line": "5860 AVALON", "city": "CA", "state": "USA", "zip_code": "90003-1397"},
{"address_line": "423 E 82ND", "city": "CA", "state": "USA", "zip_code": "90003-3149"},
{"address_line": "1715 E 69TH", "city": "CA", "state": "USA", "zip_code": "90001-2063"},
{"address_line": "401 E  62ND", "city": "CA", "state": "USA", "zip_code": "90003-1626"},
{"address_line": "9418 GRAHAM", "city": "CA", "state": "USA", "zip_code": "90002-2465"},
{"address_line": "1412 E  75TH", "city": "CA", "state": "USA", "zip_code": "90001-3079"},
{"address_line": "10140 1/4 BEACH", "city": "CA", "state": "USA", "zip_code": "90002-2947"},
{"address_line": "1400 NADEAU", "city": "CA", "state": "USA", "zip_code": "90001-3026"},
{"address_line": "205 W  89TH", "city": "CA", "state": "USA", "zip_code": "90003-3643"},
{"address_line": "304 N ROSSMORE", "city": "CA", "state": "USA", "zip_code": "90004-2484"},
{"address_line": "5901 LILLIAN", "city": "CA", "state": "USA", "zip_code": "90001-1433"},
{"address_line": "5950 S MAIN", "city": "CA", "state": "USA", "zip_code": "90003-1275"},
{"address_line": "900 E  93RD", "city": "CA", "state": "USA", "zip_code": "90002-1903"},
{"address_line": "303 W  59TH", "city": "CA", "state": "USA", "zip_code": "90003-1137"},
{"address_line": "451 N WILTON", "city": "CA", "state": "USA", "zip_code": "90004-1643"},
{"address_line": "6324 S  BROADWAY", "city": "CA", "state": "USA", "zip_code": "90003-1462"},
{"address_line": "439 E  81ST", "city": "CA", "state": "USA", "zip_code": "90003-2653"},
{"address_line": "1957 E FLORENCE", "city": "CA", "state": "USA", "zip_code": "90001-2700"},
{"address_line": "1241 E  76TH", "city": "CA", "state": "USA", "zip_code": "90001-2459"},
{"address_line": "701 E 76TH", "city": "CA", "state": "USA", "zip_code": "90001-2808"},
{"address_line": "1626 E 85TH", "city": "CA", "state": "USA", "zip_code": "90001-3975"},
{"address_line": "400 W 102ND", "city": "CA", "state": "USA", "zip_code": "90003-4404"},
{"address_line": "1840 E 106TH", "city": "CA", "state": "USA", "zip_code": "90002-3620"},
{"address_line": "5900 S FIGUEROA", "city": "CA", "state": "USA", "zip_code": "90003-1018"},
{"address_line": "6401 MIRAMONTE", "city": "CA", "state": "USA", "zip_code": "90001-1739"},
{"address_line": "1500 E  80TH", "city": "CA", "state": "USA", "zip_code": "90001-3404"},
{"address_line": "7400 CROCKETT", "city": "CA", "state": "USA", "zip_code": "90001-2726"},
{"address_line": "200 W  COLDEN", "city": "CA", "state": "USA", "zip_code": "90003-4151"},
{"address_line": "9914 S  BROADWAY", "city": "CA", "state": "USA", "zip_code": "90003-4173"},
{"address_line": "1101 E  88TH", "city": "CA", "state": "USA", "zip_code": "90002-1142"},
{"address_line": "10200 S SPRING", "city": "CA", "state": "USA", "zip_code": "90003-4635"},
{"address_line": "9015 S  MAIN", "city": "CA", "state": "USA", "zip_code": "90003-3755"},
{"address_line": "10601 WALL", "city": "CA", "state": "USA", "zip_code": "90003-4744"},
{"address_line": "74781 PO BOX", "city": "CA", "state": "USA", "zip_code": "90004-0781"},
{"address_line": "4906 ROSEWOOD", "city": "CA", "state": "USA", "zip_code": "90004-2583"},
{"address_line": "6400 MIRAMONTE", "city": "CA", "state": "USA", "zip_code": "90001-1740"},
{"address_line": "100 W  80TH", "city": "CA", "state": "USA", "zip_code": "90003-2422"},
{"address_line": "459 N OXFORD", "city": "CA", "state": "USA", "zip_code": "90004-2731"},
{"address_line": "301 W  66TH", "city": "CA", "state": "USA", "zip_code": "90003-1814"},
{"address_line": "1228 E  70TH", "city": "CA", "state": "USA", "zip_code": "90001-4200"},
{"address_line": "937 E  92ND", "city": "CA", "state": "USA", "zip_code": "90002-1639"},
{"address_line": "8300 S  GRAND", "city": "CA", "state": "USA", "zip_code": "90003-2871"},
{"address_line": "10401 WEIGAND", "city": "CA", "state": "USA", "zip_code": "90002-3865"},
{"address_line": "606 N LARCHMONT", "city": "CA", "state": "USA", "zip_code": "90004-1395"},
{"address_line": "410 N ROSSMORE", "city": "CA", "state": "USA", "zip_code": "90004-2418"},
{"address_line": "801 E 104TH", "city": "CA", "state": "USA", "zip_code": "90002-3254"},
{"address_line": "565 N  LARCHMONT", "city": "CA", "state": "USA", "zip_code": "90004-1368"},
{"address_line": "4264 CLINTON", "city": "CA", "state": "USA", "zip_code": "90004-2178"},
{"address_line": "100 E  66TH", "city": "CA", "state": "USA", "zip_code": "90003-1522"},
{"address_line": "6122 S MAIN", "city": "CA", "state": "USA", "zip_code": "90003-1261"},
{"address_line": "8900 STANFORD", "city": "CA", "state": "USA", "zip_code": "90002-1644"},
{"address_line": "7401 S  BROADWAY", "city": "CA", "state": "USA", "zip_code": "90003-2033"},
{"address_line": "1301 E  69TH", "city": "CA", "state": "USA", "zip_code": "90001-1917"},
{"address_line": "611 N  ST ANDREWS", "city": "CA", "state": "USA", "zip_code": "90004-1754"},
{"address_line": "300 E 82ND", "city": "CA", "state": "USA", "zip_code": "90003-3020"},
{"address_line": "6100 MIRAMONTE", "city": "CA", "state": "USA", "zip_code": "90001-1330"},
{"address_line": "9216 BELHAVEN", "city": "CA", "state": "USA", "zip_code": "90002-2008"},
{"address_line": "7653 HOOPER", "city": "CA", "state": "USA", "zip_code": "90001-3058"},
{"address_line": "8407 S  MAIN", "city": "CA", "state": "USA", "zip_code": "90003-2919"},
{"address_line": "516 N  OXFORD", "city": "CA", "state": "USA", "zip_code": "90004-2700"},
{"address_line": "636 N MANHATTAN", "city": "CA", "state": "USA", "zip_code": "90004-1733"},
{"address_line": "1930 NADEAU", "city": "CA", "state": "USA", "zip_code": "90001-3500"},
{"address_line": "743155 PO BOX", "city": "CA", "state": "USA", "zip_code": "90004-0933"},
{"address_line": "101 E 73RD", "city": "CA", "state": "USA", "zip_code": "90003-2109"},
{"address_line": "9504 KALMIA", "city": "CA", "state": "USA", "zip_code": "90002-2663"},
{"address_line": "151 E  95TH", "city": "CA", "state": "USA", "zip_code": "90003-4245"},
{"address_line": "10510 S  FIGUEROA", "city": "CA", "state": "USA", "zip_code": "90003-4466"},
{"address_line": "6800 MCKINLEY", "city": "CA", "state": "USA", "zip_code": "90001-1526"},
{"address_line": "108 W  105TH", "city": "CA", "state": "USA", "zip_code": "90003-4648"},
{"address_line": "1391 PO BOX", "city": "CA", "state": "USA", "zip_code": "90001-0391"},
{"address_line": "9601 CLOVIS", "city": "CA", "state": "USA", "zip_code": "90002-2041"},
{"address_line": "401 N HOOVER", "city": "CA", "state": "USA", "zip_code": "90004-2306"},
{"address_line": "8226 COMPTON", "city": "CA", "state": "USA", "zip_code": "90001-3945"},
{"address_line": "8301 AVALON", "city": "CA", "state": "USA", "zip_code": "90003-3109"},
{"address_line": "6413 1/2 AVALON", "city": "CA", "state": "USA", "zip_code": "90003-1649"},
{"address_line": "401 W 87TH", "city": "CA", "state": "USA", "zip_code": "90003-3201"},
{"address_line": "9101 S  FIGUEROA", "city": "CA", "state": "USA", "zip_code": "90003-3905"},
{"address_line": "535 N HOBART", "city": "CA", "state": "USA", "zip_code": "90004-1874"},
{"address_line": "10129 BEACH", "city": "CA", "state": "USA", "zip_code": "90002-2960"},
{"address_line": "572 N  VIRGIL", "city": "CA", "state": "USA", "zip_code": "90004-2320"},
{"address_line": "221 W  87TH", "city": "CA", "state": "USA", "zip_code": "90003-3346"},
{"address_line": "1141 E  FLORENCE", "city": "CA", "state": "USA", "zip_code": "90001-2467"},
{"address_line": "434 W  78TH", "city": "CA", "state": "USA", "zip_code": "90003-2784"},
{"address_line": "10400 CLOVIS", "city": "CA", "state": "USA", "zip_code": "90002-3349"},
{"address_line": "655 N MANHATTAN", "city": "CA", "state": "USA", "zip_code": "90004-1732"},
{"address_line": "1200 E  60TH", "city": "CA", "state": "USA", "zip_code": "90001-1120"},
{"address_line": "1000 PO BOX", "city": "CA", "state": "USA", "zip_code": "90001-1000"},
{"address_line": "427 1/2 E  98TH", "city": "CA", "state": "USA", "zip_code": "90003-4355"},
{"address_line": "1153 E  61ST", "city": "CA", "state": "USA", "zip_code": "90001-1185"},
{"address_line": "4801 BEVERLY", "city": "CA", "state": "USA", "zip_code": "90004-1601"},
{"address_line": "500 E MANCHESTER", "city": "CA", "state": "USA", "zip_code": "90003-3525"},
{"address_line": "101 E  82ND", "city": "CA", "state": "USA", "zip_code": "90003-2521"},
{"address_line": "72056 PO BOX", "city": "CA", "state": "USA", "zip_code": "90002-0055"},
{"address_line": "8401 GRAHAM", "city": "CA", "state": "USA", "zip_code": "90001-4042"},
{"address_line": "7300 S CENTRAL", "city": "CA", "state": "USA", "zip_code": "90001-2423"},
{"address_line": "8600 S  FIR", "city": "CA", "state": "USA", "zip_code": "90002-1512"},
{"address_line": "6303 S  SAN PEDRO", "city": "CA", "state": "USA", "zip_code": "90003-1600"},
{"address_line": "6500 S  FLOWER", "city": "CA", "state": "USA", "zip_code": "90003-1072"},
{"address_line": "5961 AVALON", "city": "CA", "state": "USA", "zip_code": "90003-1344"},
{"address_line": "5900 S CENTRAL", "city": "CA", "state": "USA", "zip_code": "90001-1129"},
{"address_line": "626 N BERENDO", "city": "CA", "state": "USA", "zip_code": "90004-2144"},
{"address_line": "200 E 67TH", "city": "CA", "state": "USA", "zip_code": "90003-1504"},
{"address_line": "441 N VIRGIL", "city": "CA", "state": "USA", "zip_code": "90004-2361"},
{"address_line": "8302 S  MAIN", "city": "CA", "state": "USA", "zip_code": "90003-2929"},
{"address_line": "590 N  ROSSMORE", "city": "CA", "state": "USA", "zip_code": "90004-2451"},
{"address_line": "101 E 62ND", "city": "CA", "state": "USA", "zip_code": "90003-1233"},
{"address_line": "8400 MCKINLEY", "city": "CA", "state": "USA", "zip_code": "90001-3607"},
{"address_line": "9800 WILMINGTON", "city": "CA", "state": "USA", "zip_code": "90002-3038"},
{"address_line": "301 W 81ST", "city": "CA", "state": "USA", "zip_code": "90003-2431"},
{"address_line": "2001 E 102ND", "city": "CA", "state": "USA", "zip_code": "90002-3118"},
{"address_line": "8201 S FLOWER", "city": "CA", "state": "USA", "zip_code": "90003-2766"},
{"address_line": "8700 ZAMORA", "city": "CA", "state": "USA", "zip_code": "90002-1210"},
{"address_line": "7669 S  SAN PEDRO", "city": "CA", "state": "USA", "zip_code": "90003-2368"},
{"address_line": "10101 JUNIPER", "city": "CA", "state": "USA", "zip_code": "90002-3140"},
{"address_line": "325 W 61ST", "city": "CA", "state": "USA", "zip_code": "90003-1451"},
{"address_line": "9601 CLOVIS", "city": "CA", "state": "USA", "zip_code": "90002-2041"},
{"address_line": "9305 KALMIA", "city": "CA", "state": "USA", "zip_code": "90002-2666"},
{"address_line": "300 W 65TH", "city": "CA", "state": "USA", "zip_code": "90003-1426"},
{"address_line": "4517 MAPLEWOOD", "city": "CA", "state": "USA", "zip_code": "90004-1950"},
{"address_line": "2101 E 105TH", "city": "CA", "state": "USA", "zip_code": "90002-3802"},
{"address_line": "1535 E  92ND", "city": "CA", "state": "USA", "zip_code": "90002-2331"},
{"address_line": "6001 S  CENTRAL", "city": "CA", "state": "USA", "zip_code": "90001-1130"},
{"address_line": "1801 E  61ST", "city": "CA", "state": "USA", "zip_code": "90001-1423"},
{"address_line": "6527 MCKINLEY", "city": "CA", "state": "USA", "zip_code": "90001-1551"},
{"address_line": "601 N VERMONT", "city": "CA", "state": "USA", "zip_code": "90004-2174"},
{"address_line": "4851 BEVERLY", "city": "CA", "state": "USA", "zip_code": "90004-1626"},
{"address_line": "600 CAMELOT", "city": "CA", "state": "USA", "zip_code": "90002-1039"},
{"address_line": "600 N ARDEN", "city": "CA", "state": "USA", "zip_code": "90004-1202"},
{"address_line": "200 E  106TH", "city": "CA", "state": "USA", "zip_code": "90003-4731"},
{"address_line": "10601 JUNIPER", "city": "CA", "state": "USA", "zip_code": "90002-3822"},
{"address_line": "8468 AVALON", "city": "CA", "state": "USA", "zip_code": "90003-3132"},
{"address_line": "6506 COMPTON", "city": "CA", "state": "USA", "zip_code": "90001-1788"},
{"address_line": "1600 E  84TH", "city": "CA", "state": "USA", "zip_code": "90001-3912"},
{"address_line": "7906 S SAN PEDRO", "city": "CA", "state": "USA", "zip_code": "90003-2669"},
{"address_line": "400 W 84TH", "city": "CA", "state": "USA", "zip_code": "90003-2715"},
{"address_line": "1551 E 60TH", "city": "CA", "state": "USA", "zip_code": "90001-1339"},
{"address_line": "8315 S CENTRAL", "city": "CA", "state": "USA", "zip_code": "90001-3754"},
{"address_line": "304 N ROSSMORE", "city": "CA", "state": "USA", "zip_code": "90004-2484"},
{"address_line": "4827 ROSEWOOD", "city": "CA", "state": "USA", "zip_code": "90004-2542"},
{"address_line": "2301 E 96TH", "city": "CA", "state": "USA", "zip_code": "90002-2620"},
{"address_line": "8222 AVALON", "city": "CA", "state": "USA", "zip_code": "90003-3145"},
{"address_line": "701 E  106TH", "city": "CA", "state": "USA", "zip_code": "90002-3438"},
{"address_line": "508 N  NORMANDIE", "city": "CA", "state": "USA", "zip_code": "90004-2045"},
{"address_line": "1101 E 80TH", "city": "CA", "state": "USA", "zip_code": "90001-3301"},
{"address_line": "7901 BEACH", "city": "CA", "state": "USA", "zip_code": "90001-3422"},
{"address_line": "1321 E  77TH", "city": "CA", "state": "USA", "zip_code": "90001-3060"},
{"address_line": "9100 STANFORD", "city": "CA", "state": "USA", "zip_code": "90002-1649"},
{"address_line": "6601 HOOPER", "city": "CA", "state": "USA", "zip_code": "90001-1278"},
{"address_line": "600 E  88TH", "city": "CA", "state": "USA", "zip_code": "90002-1022"},
{"address_line": "1500 FIRESTONE", "city": "CA", "state": "USA", "zip_code": "90001-3924"},
{"address_line": "6900 WILSON", "city": "CA", "state": "USA", "zip_code": "90001-2245"},
{"address_line": "400 W 84TH", "city": "CA", "state": "USA", "zip_code": "90003-2713"},
{"address_line": "900 E CENTURY", "city": "CA", "state": "USA", "zip_code": "90002-2728"},
{"address_line": "400 N  HOBART", "city": "CA", "state": "USA", "zip_code": "90004-1800"},
{"address_line": "8916 AVALON", "city": "CA", "state": "USA", "zip_code": "90003-3863"},
{"address_line": "10451 S FIGUEROA", "city": "CA", "state": "USA", "zip_code": "90003-4453"},
{"address_line": "1520 E 85TH", "city": "CA", "state": "USA", "zip_code": "90001-3968"},
{"address_line": "4611 ROSEWOOD", "city": "CA", "state": "USA", "zip_code": "90004-1865"},
{"address_line": "1351 E 89TH", "city": "CA", "state": "USA", "zip_code": "90002-1224"},
{"address_line": "8700 CROCKER", "city": "CA", "state": "USA", "zip_code": "90003-3556"},
{"address_line": "5301 W  2ND", "city": "CA", "state": "USA", "zip_code": "90004-1062"},
{"address_line": "6400 WILMINGTON", "city": "CA", "state": "USA", "zip_code": "90001-2135"},
{"address_line": "9511 COMPTON", "city": "CA", "state": "USA", "zip_code": "90002-2362"},
{"address_line": "4650 ROSEWOOD", "city": "CA", "state": "USA", "zip_code": "90004-1835"},
{"address_line": "6101 AVALON", "city": "CA", "state": "USA", "zip_code": "90003-1632"},
{"address_line": "1951 E  102ND", "city": "CA", "state": "USA", "zip_code": "90002-3054"},
{"address_line": "8457 AVALON", "city": "CA", "state": "USA", "zip_code": "90003-3134"},
{"address_line": "601 N HARVARD", "city": "CA", "state": "USA", "zip_code": "90004-1908"},
{"address_line": "518 N  NORMANDIE", "city": "CA", "state": "USA", "zip_code": "90004-2049"},
{"address_line": "630 E  103RD", "city": "CA", "state": "USA", "zip_code": "90002-3215"},
{"address_line": "9124 S  BROADWAY", "city": "CA", "state": "USA", "zip_code": "90003-4052"},
{"address_line": "2101 E  92ND", "city": "CA", "state": "USA", "zip_code": "90002-2509"},
{"address_line": "10000 WALL", "city": "CA", "state": "USA", "zip_code": "90003-4714"},
{"address_line": "10321 CLOVIS", "city": "CA", "state": "USA", "zip_code": "90002-3333"},
{"address_line": "8251 WALL", "city": "CA", "state": "USA", "zip_code": "90003-3044"},
{"address_line": "1501 E FLORENCE", "city": "CA", "state": "USA", "zip_code": "90001-2535"},
{"address_line": "814 E  97TH", "city": "CA", "state": "USA", "zip_code": "90002-2707"},
{"address_line": "1838 E 83RD", "city": "CA", "state": "USA", "zip_code": "90001-4055"},
{"address_line": "9100 GRAHAM", "city": "CA", "state": "USA", "zip_code": "90002-1436"},
{"address_line": "839 E 87TH", "city": "CA", "state": "USA", "zip_code": "90002-1072"},
{"address_line": "5801 CLINTON", "city": "CA", "state": "USA", "zip_code": "90004-1135"},
{"address_line": "7301 S  FLOWER", "city": "CA", "state": "USA", "zip_code": "90003-1774"},
{"address_line": "507 E  65TH", "city": "CA", "state": "USA", "zip_code": "90003-1956"},
{"address_line": "801 E  97TH", "city": "CA", "state": "USA", "zip_code": "90002-2706"},
{"address_line": "7700 S  MAIN", "city": "CA", "state": "USA", "zip_code": "90003-2463"},
{"address_line": "647 N JUANITA", "city": "CA", "state": "USA", "zip_code": "90004-2238"},
{"address_line": "10201 GRAPE", "city": "CA", "state": "USA", "zip_code": "90002-3174"},
{"address_line": "7524 S  SAN PEDRO", "city": "CA", "state": "USA", "zip_code": "90003-2355"},
{"address_line": "7900 AVALON", "city": "CA", "state": "USA", "zip_code": "90003-2623"},
{"address_line": "156 W SLAUSON", "city": "CA", "state": "USA", "zip_code": "90003-1168"},
{"address_line": "4847 ROSEWOOD", "city": "CA", "state": "USA", "zip_code": "90004-2539"},
{"address_line": "615 E  89TH", "city": "CA", "state": "USA", "zip_code": "90002-1635"},
{"address_line": "8701 S  BROADWAY", "city": "CA", "state": "USA", "zip_code": "90003-3321"},
{"address_line": "701 E  84TH", "city": "CA", "state": "USA", "zip_code": "90001-3620"},
{"address_line": "233 W  CENTURY", "city": "CA", "state": "USA", "zip_code": "90003-4577"},
{"address_line": "201 W COLDEN", "city": "CA", "state": "USA", "zip_code": "90003-4129"},
{"address_line": "4449 MAPLEWOOD", "city": "CA", "state": "USA", "zip_code": "90004-2032"},
{"address_line": "225 E CENTURY", "city": "CA", "state": "USA", "zip_code": "90003-4749"},
{"address_line": "5037 ROSEWOOD", "city": "CA", "state": "USA", "zip_code": "90004-1784"},
{"address_line": "10601 S BROADWAY", "city": "CA", "state": "USA", "zip_code": "90003-4596"},
{"address_line": "8925 S  FIGUEROA", "city": "CA", "state": "USA", "zip_code": "90003-3261"},
{"address_line": "801 E 74TH", "city": "CA", "state": "USA", "zip_code": "90001-2311"},
{"address_line": "8100 S FIGUEROA", "city": "CA", "state": "USA", "zip_code": "90003-2723"},
{"address_line": "9100 S SAN PEDRO", "city": "CA", "state": "USA", "zip_code": "90003-3841"},
{"address_line": "301 N VAN NESS", "city": "CA", "state": "USA", "zip_code": "90004-1523"},
{"address_line": "10201 S OLIVE", "city": "CA", "state": "USA", "zip_code": "90003-4571"},
{"address_line": "72061 PO BOX", "city": "CA", "state": "USA", "zip_code": "90002-0061"},
{"address_line": "8500 S  BROADWAY", "city": "CA", "state": "USA", "zip_code": "90003-3335"},
{"address_line": "101 E  94TH", "city": "CA", "state": "USA", "zip_code": "90003-3733"},
{"address_line": "2101 FIRESTONE", "city": "CA", "state": "USA", "zip_code": "90002-1545"},
{"address_line": "2100 E  102ND", "city": "CA", "state": "USA", "zip_code": "90002-3119"},
{"address_line": "601 N  PLYMOUTH", "city": "CA", "state": "USA", "zip_code": "90004-1420"},
{"address_line": "8200 BEACH", "city": "CA", "state": "USA", "zip_code": "90001-4015"},
{"address_line": "1901 E  75TH", "city": "CA", "state": "USA", "zip_code": "90001-2708"},
{"address_line": "8910 AVALON", "city": "CA", "state": "USA", "zip_code": "90003-3819"},
{"address_line": "8717 AVALON", "city": "CA", "state": "USA", "zip_code": "90003-3565"},
{"address_line": "7514 S SAN PEDRO", "city": "CA", "state": "USA", "zip_code": "90003-2340"},
{"address_line": "8600 S  FIR", "city": "CA", "state": "USA", "zip_code": "90002-1512"},
{"address_line": "10300 ANTWERP", "city": "CA", "state": "USA", "zip_code": "90002-3510"},
{"address_line": "2200 E  99TH", "city": "CA", "state": "USA", "zip_code": "90002-3153"},
{"address_line": "100 W  76TH", "city": "CA", "state": "USA", "zip_code": "90003-2020"},
{"address_line": "9500 S  BROADWAY", "city": "CA", "state": "USA", "zip_code": "90003-4060"},
{"address_line": "400 E 61ST", "city": "CA", "state": "USA", "zip_code": "90003-1621"},
{"address_line": "1501 E 62ND", "city": "CA", "state": "USA", "zip_code": "90001-1305"},
{"address_line": "201 E  102ND", "city": "CA", "state": "USA", "zip_code": "90003-4707"},
{"address_line": "655 N COMMONWEALTH", "city": "CA", "state": "USA", "zip_code": "90004-2351"}
]